{
  "type": "FeatureCollection",
  "features": [
    {
      "type": "Feature",
      "properties": {
        "norad_id": 39553,
        "name": "COSMOS 2251 DEB",
        "group": "cosmos-2251-debris",
        "lat": -56.494999059994136,
        "lon": 165.89484860180565,
        "alt_km": 1019.8994308815882,
        "timestamp": "2025-12-18T08:58:43.813091+00:00",
        "meta_object_name": "COSMOS 2251 DEB",
        "meta_object_id": "1993-036BUK",
        "meta_epoch": "2025-12-07T06:00:50.455872",
        "meta_mean_motion": 13.99876591,
        "meta_eccentricity": 0.02014092,
        "meta_inclination": 74.0304,
        "meta_ra_of_asc_node": 339.5232,
        "meta_arg_of_pericenter": 116.8065,
        "meta_mean_anomaly": 245.3825,
        "meta_ephemeris_type": 0,
        "meta_classification_type": "U",
        "meta_norad_cat_id": 39553,
        "meta_element_set_no": 999,
        "meta_rev_at_epoch": 75540,
        "meta_bstar": 0.00088887208,
        "meta_mean_motion_dot": 1.532e-05,
        "meta_mean_motion_ddot": 0,
        "tle_line1": "1 39553U 93036BUK 25341.25058398  .00001532  00000+0  88887-3 0  9993",
        "tle_line2": "2 39553  74.0304 339.5232 0201409 116.8065 245.3825 13.99876591755403"
      },
      "geometry": {
        "type": "Point",
        "coordinates": [
          165.89484860180565,
          -56.494999059994136
        ]
      }
    },
    {
      "type": "Feature",
      "properties": {
        "norad_id": 39554,
        "name": "COSMOS 2251 DEB",
        "group": "cosmos-2251-debris",
        "lat": -3.266661474945724,
        "lon": -107.97998048018708,
        "alt_km": 533.9217323124549,
        "timestamp": "2025-12-18T08:58:43.813101+00:00",
        "meta_object_name": "COSMOS 2251 DEB",
        "meta_object_id": "1993-036BUL",
        "meta_epoch": "2025-12-10T06:12:03.924864",
        "meta_mean_motion": 15.10130993,
        "meta_eccentricity": 0.0002993,
        "meta_inclination": 74.0187,
        "meta_ra_of_asc_node": 269.7383,
        "meta_arg_of_pericenter": 74.7531,
        "meta_mean_anomaly": 81.5927,
        "meta_ephemeris_type": 0,
        "meta_classification_type": "U",
        "meta_norad_cat_id": 39554,
        "meta_element_set_no": 999,
        "meta_rev_at_epoch": 64347,
        "meta_bstar": 0.0046896,
        "meta_mean_motion_dot": 0.000773,
        "meta_mean_motion_ddot": 0,
        "tle_line1": "1 39554U 93036BUL 25344.25837876  .00077300  00000+0  46896-2 0  9992",
        "tle_line2": "2 39554  74.0187 269.7383 0002993  74.7531  81.5927 15.10130993643471"
      },
      "geometry": {
        "type": "Point",
        "coordinates": [
          -107.97998048018708,
          -3.266661474945724
        ]
      }
    },
    {
      "type": "Feature",
      "properties": {
        "norad_id": 39583,
        "name": "COSMOS 2251 DEB",
        "group": "cosmos-2251-debris",
        "lat": 72.62166853884656,
        "lon": -10.662557497795694,
        "alt_km": 712.8745676222088,
        "timestamp": "2025-12-18T08:58:43.813112+00:00",
        "meta_object_name": "COSMOS 2251 DEB",
        "meta_object_id": "1993-036BUN",
        "meta_epoch": "2025-12-16T23:39:55.771488",
        "meta_mean_motion": 14.60519983,
        "meta_eccentricity": 0.01368963,
        "meta_inclination": 73.9326,
        "meta_ra_of_asc_node": 239.0626,
        "meta_arg_of_pericenter": 351.6051,
        "meta_mean_anomaly": 8.2822,
        "meta_ephemeris_type": 0,
        "meta_classification_type": "U",
        "meta_norad_cat_id": 39583,
        "meta_element_set_no": 999,
        "meta_rev_at_epoch": 61841,
        "meta_bstar": 0.0012891969,
        "meta_mean_motion_dot": 7.116e-05,
        "meta_mean_motion_ddot": 0,
        "tle_line1": "1 39583U 93036BUN 25350.98606217  .00007116  00000+0  12892-2 0  9991",
        "tle_line2": "2 39583  73.9326 239.0626 0136896 351.6051   8.2822 14.60519983618410"
      },
      "geometry": {
        "type": "Point",
        "coordinates": [
          -10.662557497795694,
          72.62166853884656
        ]
      }
    },
    {
      "type": "Feature",
      "properties": {
        "norad_id": 39585,
        "name": "COSMOS 2251 DEB",
        "group": "cosmos-2251-debris",
        "lat": -59.17727544431663,
        "lon": 139.2483754362595,
        "alt_km": 749.3461396013981,
        "timestamp": "2025-12-18T08:58:43.813122+00:00",
        "meta_object_name": "COSMOS 2251 DEB",
        "meta_object_id": "1993-036BUQ",
        "meta_epoch": "2025-12-17T13:45:47.587680",
        "meta_mean_motion": 14.58681164,
        "meta_eccentricity": 0.00655713,
        "meta_inclination": 74.0421,
        "meta_ra_of_asc_node": 292.1145,
        "meta_arg_of_pericenter": 51.6529,
        "meta_mean_anomaly": 309.0503,
        "meta_ephemeris_type": 0,
        "meta_classification_type": "U",
        "meta_norad_cat_id": 39585,
        "meta_element_set_no": 999,
        "meta_rev_at_epoch": 62591,
        "meta_bstar": 0.00024435975,
        "meta_mean_motion_dot": 1.143e-05,
        "meta_mean_motion_ddot": 0,
        "tle_line1": "1 39585U 93036BUQ 25351.57346745  .00001143  00000+0  24436-3 0  9998",
        "tle_line2": "2 39585  74.0421 292.1145 0065571  51.6529 309.0503 14.58681164625913"
      },
      "geometry": {
        "type": "Point",
        "coordinates": [
          139.2483754362595,
          -59.17727544431663
        ]
      }
    },
    {
      "type": "Feature",
      "properties": {
        "norad_id": 39586,
        "name": "COSMOS 2251 DEB",
        "group": "cosmos-2251-debris",
        "lat": -0.2882000616685518,
        "lon": -141.9490973167277,
        "alt_km": 751.9268099796172,
        "timestamp": "2025-12-18T08:58:43.813132+00:00",
        "meta_object_name": "COSMOS 2251 DEB",
        "meta_object_id": "1993-036BUR",
        "meta_epoch": "2025-12-15T23:50:08.053728",
        "meta_mean_motion": 14.21232237,
        "meta_eccentricity": 0.01008868,
        "meta_inclination": 74.0082,
        "meta_ra_of_asc_node": 222.4068,
        "meta_arg_of_pericenter": 356.2296,
        "meta_mean_anomaly": 66.1426,
        "meta_ephemeris_type": 0,
        "meta_classification_type": "U",
        "meta_norad_cat_id": 39586,
        "meta_element_set_no": 999,
        "meta_rev_at_epoch": 61018,
        "meta_bstar": 0.00043436803,
        "meta_mean_motion_dot": 9.7e-06,
        "meta_mean_motion_ddot": 0,
        "tle_line1": "1 39586U 93036BUR 25349.99314877  .00000970  00000+0  43437-3 0  9992",
        "tle_line2": "2 39586  74.0082 222.4068 0100886 356.2296  66.1426 14.21232237610182"
      },
      "geometry": {
        "type": "Point",
        "coordinates": [
          -141.9490973167277,
          -0.2882000616685518
        ]
      }
    },
    {
      "type": "Feature",
      "properties": {
        "norad_id": 39591,
        "name": "COSMOS 2251 DEB",
        "group": "cosmos-2251-debris",
        "lat": -51.84109896522136,
        "lon": -145.0754758622922,
        "alt_km": 743.6511825042753,
        "timestamp": "2025-12-18T08:58:43.813142+00:00",
        "meta_object_name": "COSMOS 2251 DEB",
        "meta_object_id": "1993-036BUW",
        "meta_epoch": "2025-12-16T09:29:52.077696",
        "meta_mean_motion": 14.41820254,
        "meta_eccentricity": 0.00293402,
        "meta_inclination": 74.0195,
        "meta_ra_of_asc_node": 239.9819,
        "meta_arg_of_pericenter": 351.9652,
        "meta_mean_anomaly": 128.7206,
        "meta_ephemeris_type": 0,
        "meta_classification_type": "U",
        "meta_norad_cat_id": 39591,
        "meta_element_set_no": 999,
        "meta_rev_at_epoch": 61829,
        "meta_bstar": 0.00026614281,
        "meta_mean_motion_dot": 8.48e-06,
        "meta_mean_motion_ddot": 0,
        "tle_line1": "1 39591U 93036BUW 25350.39574164  .00000848  00000+0  26614-3 0  9993",
        "tle_line2": "2 39591  74.0195 239.9819 0029340 351.9652 128.7206 14.41820254618298"
      },
      "geometry": {
        "type": "Point",
        "coordinates": [
          -145.0754758622922,
          -51.84109896522136
        ]
      }
    },
    {
      "type": "Feature",
      "properties": {
        "norad_id": 40218,
        "name": "COSMOS 2251 DEB",
        "group": "cosmos-2251-debris",
        "lat": -14.549960461100726,
        "lon": 62.649996184174505,
        "alt_km": 764.4350893288156,
        "timestamp": "2025-12-18T08:58:43.813152+00:00",
        "meta_object_name": "COSMOS 2251 DEB",
        "meta_object_id": "1993-036BUX",
        "meta_epoch": "2025-12-14T10:48:31.251744",
        "meta_mean_motion": 14.41597705,
        "meta_eccentricity": 0.00168728,
        "meta_inclination": 74.0298,
        "meta_ra_of_asc_node": 245.6562,
        "meta_arg_of_pericenter": 328.6,
        "meta_mean_anomaly": 31.4147,
        "meta_ephemeris_type": 0,
        "meta_classification_type": "U",
        "meta_norad_cat_id": 40218,
        "meta_element_set_no": 999,
        "meta_rev_at_epoch": 58886,
        "meta_bstar": 0.00046023204,
        "meta_mean_motion_dot": 1.474e-05,
        "meta_mean_motion_ddot": 0,
        "tle_line1": "1 40218U 93036BUX 25348.45036171  .00001474  00000+0  46023-3 0  9998",
        "tle_line2": "2 40218  74.0298 245.6562 0016872 328.6000  31.4147 14.41597705588868"
      },
      "geometry": {
        "type": "Point",
        "coordinates": [
          62.649996184174505,
          -14.549960461100726
        ]
      }
    }
  ]
}